CCSDS_OMM_VERS = 2.0
CREATION_DATE  = 
ORIGINATOR     = 

OBJECT_NAME    = IDEFIX & ARIANE 42P R/B
OBJECT_ID      = 2002-021B
CENTER_NAME    = EARTH
REF_FRAME      = TEME
TIME_SYSTEM    = UTC
MEAN_ELEMENT_THEORY = SGP/SGP4

EPOCH          = 2026-01-03T21:19:44.856768
MEAN_MOTION    = 14.30970661
ECCENTRICITY   = .0012302
INCLINATION    = 98.5809
RA_OF_ASC_NODE = 303.2949
ARG_OF_PERICENTER = 23.0355
MEAN_ANOMALY   = 337.1377

EPHEMERIS_TYPE = 0
CLASSIFICATION_TYPE = U
NORAD_CAT_ID   = 27422
ELEMENT_SET_NO = 999
REV_AT_EPOCH   = 23475
BSTAR          = .22445E-3
MEAN_MOTION_DOT = .547E-5
MEAN_MOTION_DDOT = 0

CCSDS_OMM_VERS = 2.0
CREATION_DATE  = 
ORIGINATOR     = 

OBJECT_NAME    = AQUA
OBJECT_ID      = 2002-022A
CENTER_NAME    = EARTH
REF_FRAME      = TEME
TIME_SYSTEM    = UTC
MEAN_ELEMENT_THEORY = SGP/SGP4

EPOCH          = 2026-01-03T22:31:10.390080
MEAN_MOTION    = 14.61796291
ECCENTRICITY   = .0002003
INCLINATION    = 98.4067
RA_OF_ASC_NODE = 330.1809
ARG_OF_PERICENTER = 92.1713
MEAN_ANOMALY   = 343.8415

EPHEMERIS_TYPE = 0
CLASSIFICATION_TYPE = U
NORAD_CAT_ID   = 27424
ELEMENT_SET_NO = 999
REV_AT_EPOCH   = 25927
BSTAR          = .39553E-3
MEAN_MOTION_DOT = .1925E-4
MEAN_MOTION_DDOT = 0

CCSDS_OMM_VERS = 2.0
CREATION_DATE  = 
ORIGINATOR     = 

OBJECT_NAME    = CZ-4B R/B
OBJECT_ID      = 2002-024C
CENTER_NAME    = EARTH
REF_FRAME      = TEME
TIME_SYSTEM    = UTC
MEAN_ELEMENT_THEORY = SGP/SGP4

EPOCH          = 2026-01-04T03:08:15.141984
MEAN_MOTION    = 14.14533557
ECCENTRICITY   = .0049792
INCLINATION    = 98.8963
RA_OF_ASC_NODE = 57.8207
ARG_OF_PERICENTER = 205.4469
MEAN_ANOMALY   = 173.2202

EPHEMERIS_TYPE = 0
CLASSIFICATION_TYPE = U
NORAD_CAT_ID   = 27432
ELEMENT_SET_NO = 999
REV_AT_EPOCH   = 22011
BSTAR          = .8712E-4
MEAN_MOTION_DOT = .124E-5
MEAN_MOTION_DDOT = 0

CCSDS_OMM_VERS = 2.0
CREATION_DATE  = 
ORIGINATOR     = 

OBJECT_NAME    = MIDORI II (ADEOS-II)
OBJECT_ID      = 2002-056A
CENTER_NAME    = EARTH
REF_FRAME      = TEME
TIME_SYSTEM    = UTC
MEAN_ELEMENT_THEORY = SGP/SGP4

EPOCH          = 2026-01-04T02:49:59.214144
MEAN_MOTION    = 14.29226750
ECCENTRICITY   = .0001257
INCLINATION    = 98.7664
RA_OF_ASC_NODE = 322.1953
ARG_OF_PERICENTER = 135.1574
MEAN_ANOMALY   = 224.9709

EPHEMERIS_TYPE = 0
CLASSIFICATION_TYPE = U
NORAD_CAT_ID   = 27597
ELEMENT_SET_NO = 999
REV_AT_EPOCH   = 20107
BSTAR          = .25408E-3
MEAN_MOTION_DOT = .6E-5
MEAN_MOTION_DDOT = 0

CCSDS_OMM_VERS = 2.0
CREATION_DATE  = 
ORIGINATOR     = 

OBJECT_NAME    = H-2A R/B
OBJECT_ID      = 2002-056E
CENTER_NAME    = EARTH
REF_FRAME      = TEME
TIME_SYSTEM    = UTC
MEAN_ELEMENT_THEORY = SGP/SGP4

EPOCH          = 2026-01-03T20:58:40.148256
MEAN_MOTION    = 14.33701563
ECCENTRICITY   = .00703243
INCLINATION    = 98.3093
RA_OF_ASC_NODE = 326.7533
ARG_OF_PERICENTER = 355.7096
MEAN_ANOMALY   = 65.5379

EPHEMERIS_TYPE = 0
CLASSIFICATION_TYPE = U
NORAD_CAT_ID   = 27601
ELEMENT_SET_NO = 999
REV_AT_EPOCH   = 20482
BSTAR          = .27715061E-3
MEAN_MOTION_DOT = .749E-5
MEAN_MOTION_DDOT = 0

CCSDS_OMM_VERS = 2.0
CREATION_DATE  = 
ORIGINATOR     = 

OBJECT_NAME    = CZ-4B R/B
OBJECT_ID      = 2003-049C
CENTER_NAME    = EARTH
REF_FRAME      = TEME
TIME_SYSTEM    = UTC
MEAN_ELEMENT_THEORY = SGP/SGP4

EPOCH          = 2026-01-03T22:43:11.072352
MEAN_MOTION    = 14.54936581
ECCENTRICITY   = .0049282
INCLINATION    = 98.6803
RA_OF_ASC_NODE = 356.3514
ARG_OF_PERICENTER = 69.7023
MEAN_ANOMALY   = 290.9460

EPHEMERIS_TYPE = 0
CLASSIFICATION_TYPE = U
NORAD_CAT_ID   = 28059
ELEMENT_SET_NO = 999
REV_AT_EPOCH   = 17718
BSTAR          = .19276E-3
MEAN_MOTION_DOT = .791E-5
MEAN_MOTION_DDOT = 0

CCSDS_OMM_VERS = 2.0
CREATION_DATE  = 
ORIGINATOR     = 

OBJECT_NAME    = CZ-2C R/B
OBJECT_ID      = 2004-012C
CENTER_NAME    = EARTH
REF_FRAME      = TEME
TIME_SYSTEM    = UTC
MEAN_ELEMENT_THEORY = SGP/SGP4

EPOCH          = 2026-01-04T02:43:17.079168
MEAN_MOTION    = 15.57520758
ECCENTRICITY   = .001682
INCLINATION    = 97.7372
RA_OF_ASC_NODE = 63.6082
ARG_OF_PERICENTER = 184.6043
MEAN_ANOMALY   = 175.5060

EPHEMERIS_TYPE = 0
CLASSIFICATION_TYPE = U
NORAD_CAT_ID   = 28222
ELEMENT_SET_NO = 999
REV_AT_EPOCH   = 19420
BSTAR          = .72931E-3
MEAN_MOTION_DOT = .54168E-3
MEAN_MOTION_DDOT = 0

CCSDS_OMM_VERS = 2.0
CREATION_DATE  = 
ORIGINATOR     = 

OBJECT_NAME    = SL-16 R/B
OBJECT_ID      = 2004-021B
CENTER_NAME    = EARTH
REF_FRAME      = TEME
TIME_SYSTEM    = UTC
MEAN_ELEMENT_THEORY = SGP/SGP4

EPOCH          = 2026-01-04T04:17:54.493152
MEAN_MOTION    = 14.14587711
ECCENTRICITY   = .0003914
INCLINATION    = 71.0016
RA_OF_ASC_NODE = 7.8734
ARG_OF_PERICENTER = 162.7291
MEAN_ANOMALY   = 197.3965

EPHEMERIS_TYPE = 0
CLASSIFICATION_TYPE = U
NORAD_CAT_ID   = 28353
ELEMENT_SET_NO = 999
REV_AT_EPOCH   = 11371
BSTAR          = .23406E-3
MEAN_MOTION_DOT = .402E-5
MEAN_MOTION_DDOT = 0

CCSDS_OMM_VERS = 2.0
CREATION_DATE  = 
ORIGINATOR     = 

OBJECT_NAME    = CZ-4B R/B
OBJECT_ID      = 2004-035C
CENTER_NAME    = EARTH
REF_FRAME      = TEME
TIME_SYSTEM    = UTC
MEAN_ELEMENT_THEORY = SGP/SGP4

EPOCH          = 2026-01-04T02:17:27.415680
MEAN_MOTION    = 15.27816335
ECCENTRICITY   = .003247
INCLINATION    = 97.3575
RA_OF_ASC_NODE = 39.1437
ARG_OF_PERICENTER = 195.0043
MEAN_ANOMALY   = 165.0236

EPHEMERIS_TYPE = 0
CLASSIFICATION_TYPE = U
NORAD_CAT_ID   = 28415
ELEMENT_SET_NO = 999
REV_AT_EPOCH   = 17004
BSTAR          = .47467E-3
MEAN_MOTION_DOT = .13029E-3
MEAN_MOTION_DDOT = 0

CCSDS_OMM_VERS = 2.0
CREATION_DATE  = 
ORIGINATOR     = 

OBJECT_NAME    = CZ-2C R/B
OBJECT_ID      = 2004-046B
CENTER_NAME    = EARTH
REF_FRAME      = TEME
TIME_SYSTEM    = UTC
MEAN_ELEMENT_THEORY = SGP/SGP4

EPOCH          = 2026-01-03T16:42:01.207584
MEAN_MOTION    = 14.26958652
ECCENTRICITY   = .01393064
INCLINATION    = 98.1998
RA_OF_ASC_NODE = 282.7108
ARG_OF_PERICENTER = 347.5640
MEAN_ANOMALY   = 12.2116

EPHEMERIS_TYPE = 0
CLASSIFICATION_TYPE = U
NORAD_CAT_ID   = 28480
ELEMENT_SET_NO = 999
REV_AT_EPOCH   = 9923
BSTAR          = .22109758E-3
MEAN_MOTION_DOT = .554E-5
MEAN_MOTION_DDOT = 0

CCSDS_OMM_VERS = 2.0
CREATION_DATE  = 
ORIGINATOR     = 

OBJECT_NAME    = ARIANE 5 R/B
OBJECT_ID      = 2004-049H
CENTER_NAME    = EARTH
REF_FRAME      = TEME
TIME_SYSTEM    = UTC
MEAN_ELEMENT_THEORY = SGP/SGP4

EPOCH          = 2026-01-04T00:32:22.282368
MEAN_MOTION    = 14.85088956
ECCENTRICITY   = .0083985
INCLINATION    = 98.2528
RA_OF_ASC_NODE = 170.1057
ARG_OF_PERICENTER = 199.9532
MEAN_ANOMALY   = 159.8391

EPHEMERIS_TYPE = 0
CLASSIFICATION_TYPE = U
NORAD_CAT_ID   = 28499
ELEMENT_SET_NO = 999
REV_AT_EPOCH   = 13619
BSTAR          = .25376E-3
MEAN_MOTION_DOT = .2246E-4
MEAN_MOTION_DDOT = 0

CCSDS_OMM_VERS = 2.0
CREATION_DATE  = 
ORIGINATOR     = 

OBJECT_NAME    = CZ-2D R/B
OBJECT_ID      = 2005-024B
CENTER_NAME    = EARTH
REF_FRAME      = TEME
TIME_SYSTEM    = UTC
MEAN_ELEMENT_THEORY = SGP/SGP4

EPOCH          = 2026-01-04T00:05:03.748704
MEAN_MOTION    = 15.54752201
ECCENTRICITY   = .0003032
INCLINATION    = 97.3615
RA_OF_ASC_NODE = 17.0554
ARG_OF_PERICENTER = 250.9020
MEAN_ANOMALY   = 109.1906

EPHEMERIS_TYPE = 0
CLASSIFICATION_TYPE = U
NORAD_CAT_ID   = 28738
ELEMENT_SET_NO = 999
REV_AT_EPOCH   = 12971
BSTAR          = .66672E-3
MEAN_MOTION_DOT = .44379E-3
MEAN_MOTION_DDOT = 0

