IDEFIX & ARIANE 42P R/B 
1 27422U 02021B   26003.88871362  .00000547  00000+0  22445-3 0  9991
2 27422  98.5809 303.2949 0012302  23.0355 337.1377 14.30970661234753
AQUA                    
1 27424U 02022A   26003.93831470  .00001925  00000+0  39553-3 0  9995
2 27424  98.4067 330.1809 0002003  92.1713 343.8415 14.61796291259276
CZ-4B R/B               
1 27432U 02024C   26004.13073081  .00000124  00000+0  87120-4 0  9999
2 27432  98.8963  57.8207 0049792 205.4469 173.2202 14.14533557220114
MIDORI II (ADEOS-II)    
1 27597U 02056A   26004.11804646  .00000600  00000+0  25408-3 0  9992
2 27597  98.7664 322.1953 0001257 135.1574 224.9709 14.29226750201079
H-2A R/B                
1 27601U 02056E   26003.87407579  .00000749  00000+0  27715-3 0  9991
2 27601  98.3093 326.7533 0070324 355.7096  65.5379 14.33701563204824
CZ-4B R/B               
1 28059U 03049C   26003.94665593  .00000791  00000+0  19276-3 0  9992
2 28059  98.6803 356.3514 0049282  69.7023 290.9460 14.54936581177189
CZ-2C R/B               
1 28222U 04012C   26004.11339212  .00054168  00000+0  72931-3 0  9995
2 28222  97.7372  63.6082 0016820 184.6043 175.5060 15.57520758194206
SL-16 R/B               
1 28353U 04021B   26004.17910293  .00000402  00000+0  23406-3 0  9995
2 28353  71.0016   7.8734 0003914 162.7291 197.3965 14.14587711113714
CZ-4B R/B               
1 28415U 04035C   26004.09545620  .00013029  00000+0  47467-3 0  9990
2 28415  97.3575  39.1437 0032470 195.0043 165.0236 15.27816335170049
CZ-2C R/B               
1 28480U 04046B   26003.69584731  .00000554  00000+0  22110-3 0  9992
2 28480  98.1998 282.7108 0139306 347.5640  12.2116 14.26958652 99231
ARIANE 5 R/B            
1 28499U 04049H   26004.02248012  .00002246  00000+0  25376-3 0  9999
2 28499  98.2528 170.1057 0083985 199.9532 159.8391 14.85088956136190
CZ-2D R/B               
1 28738U 05024B   26004.00351561  .00044379  00000+0  66672-3 0  9998
2 28738  97.3615  17.0554 0003032 250.9020 109.1906 15.54752201129717
